[{"OBJECT_NAME":"SITRO-AIS 23","OBJECT_ID":"2024-199H","EPOCH":"2026-03-09T22:39:00.533088","MEAN_MOTION":14.95417613,"ECCENTRICITY":0.001348,"INCLINATION":97.3327,"RA_OF_ASC_NODE":273.3902,"ARG_OF_PERICENTER":42.7028,"MEAN_ANOMALY":317.5239,"EPHEMERIS_TYPE":0,"CLASSIFICATION_TYPE":"U","NORAD_CAT_ID":61742,"ELEMENT_SET_NO":999,"REV_AT_EPOCH":11693,"BSTAR":0.00028445892,"MEAN_MOTION_DOT":3.096e-5,"MEAN_MOTION_DDOT":0},{"OBJECT_NAME":"STARLINK-36216","OBJECT_ID":"2025-304AB","EPOCH":"2026-03-09T16:30:17.309376","MEAN_MOTION":14.98333147,"ECCENTRICITY":0.0004257,"INCLINATION":70.0016,"RA_OF_ASC_NODE":174.4865,"ARG_OF_PERICENTER":263.2577,"MEAN_ANOMALY":96.8098,"EPHEMERIS_TYPE":0,"CLASSIFICATION_TYPE":"U","NORAD_CAT_ID":67217,"ELEMENT_SET_NO":999,"REV_AT_EPOCH":1387,"BSTAR":0.00040737773,"MEAN_MOTION_DOT":4.772e-5,"MEAN_MOTION_DDOT":0}]
